name_en,Longitude,Latitude
Cultural Landscape and Archaeological Remains of the Bamiyan Valley,67.82525,34.84694
Minaret and Archaeological Remains of Jam,64.51588889,34.39641667
Historic Centres of Berat and Gjirokastra,20.14083333,40.07416667
Butrint,20.02095,39.745732
Al Qal'a of Beni Hammad,4.78684,35.81844
Tassili n'Ajjer,9.0,25.5
M'Zab Valley,3.68333,32.48333
Dj¨¦mila,5.73667,36.32056
Tipasa,2.383333333,36.55
Timgad,6.468861111,35.48416667
Kasbah of Algiers,3.06028,36.78333
Madriu-Perafita-Claror Valley,1.595555556,42.49472222
"Mbanza Kongo, Vestiges of the Capital of the former Kingdom of Kongo",14.24972222,-6.268888889
Antigua Naval Dockyard and Related Archaeological Sites,-61.76166667,17.00694444
Los Glaciares National Park,-73.24944,-50.0
Iguazu National Park,-54.286073,-25.577357
"Cueva de las Manos, R¨ªo Pinturas",-70.66666667,-47.15
Pen¨ªnsula Vald¨¦s,-64.0,-42.5
Ischigualasto / Talampaya Natural Parks,-68.0,-30.0
Jesuit Block and Estancias of C¨®rdoba,-64.19111,-31.42056
Quebrada de Humahuaca,-65.34886111,-23.19986111
Los Alerces National Park,-71.8728,-42.8528
"ESMA Museum and Site of Memory ¨C Former Clandestine Centre of Detention, Torture and Extermination",-58.46533333,-34.53664167
Monasteries of Haghpat and Sanahin,44.71028,41.095
Monastery of Geghard and the Upper Azat Valley,44.818525,40.140439
Cathedral and Churches of Echmiatsin and the Archaeological Site of Zvartnots,44.29514,40.15931
Kakadu National Park,132.8333333,-12.83333333
Great Barrier Reef,147.7,-18.28611111
Sydney Opera House,151.2152778,-33.85666667
Willandra Lakes Region,143.0,-34.0
Tasmanian Wilderness,146.2305556,-43.11847222
Lord Howe Island Group,159.0883333,-31.56555556
Gondwana Rainforests of Australia,150.05,-28.25
Ulu<U>r</U>u-Kata Tju<U>t</U>a National Park,131.0,-25.33333333
Wet Tropics of Queensland,144.9666667,-15.65
Heard and McDonald Islands,73.5,-53.1
"Shark Bay, Western Australia",113.4361111,-25.48611111
Macquarie Island,158.8955556,-54.59472222
K¡¯gari (Fraser Island),153.1333333,-25.21666667
Australian Fossil Mammal Sites (Riversleigh / Naracoorte),138.7166667,-19.08333333
Greater Blue Mountains Area,150.0,-33.7
Purnululu National Park,128.5,-17.5
Royal Exhibition Building and Carlton Gardens,144.9702778,-37.80611111
Australian Convict Sites,150.9944444,-33.37833333
Ningaloo Coast,113.8102778,-22.5625
Budj Bim Cultural Landscape,141.8852778,-38.08111111
Historic Centre of the City of Salzburg,13.04333333,47.80055556
Semmering Railway,15.82797222,47.64877778
Palace and Gardens of Sch?nbrunn,16.31333333,48.18666667
Hallstatt-Dachstein / Salzkammergut Cultural Landscape,13.64638889,47.55944444
City of Graz ¨C Historic Centre and Schloss Eggenberg,15.43861111,47.07305556
Wachau Cultural Landscape,15.43416667,48.36444444
Historic Centre of Vienna,16.3699,48.2094
Walled City of Baku with the Shirvanshah's Palace and Maiden Tower,49.83333333,40.36666667
Gobustan Rock Art Cultural Landscape,49.375,40.125
Historic Centre of Sheki with the Khan¡¯s Palace,47.1875,41.20333333
Cultural Landscape of Khinalig People and ¡°K?? Yolu¡± Transhumance Route,48.8854,40.7059
Qal¡¯at al-Bahrain ¨C Ancient Harbour and Capital of Dilmun,50.52722222,26.23306
"Pearling, Testimony of an Island Economy",50.61351,26.24128
Dilmun Burial Mounds,50.51277778,26.14972222
Historic Mosque City of Bagerhat,89.8,22.66667
Ruins of the Buddhist Vihara at Paharpur,88.98333333,25.03333333
The Sundarbans,89.18333,21.95
Historic Bridgetown and its Garrison,-59.61388889,13.09666667
Mir Castle Complex,26.47272222,53.45108333
"Architectural, Residential and Cultural Complex of the Radziwill Family at Nesvizh",26.69139,53.22278
Flemish B¨¦guinages,4.47375,51.03097222
"The Four Lifts on the Canal du Centre and their Environs, La Louvi¨¨re and Le Roeulx (Hainaut)",4.13722,50.48111
"La Grand-Place, Brussels",4.35242,50.84668
Historic Centre of Brugge,3.22527,51.20891
Major Town Houses of the Architect Victor Horta (Brussels),4.36223,50.82806
Neolithic Flint Mines at Spiennes (Mons),3.982268911,50.42011348
Notre-Dame Cathedral in Tournai,3.38926,50.60603
Plantin-Moretus House-Workshops-Museum Complex,4.39778,51.21833
Stoclet House,4.416111111,50.835
Major Mining Sites of Wallonia,3.838333333,50.43527778
Belize Barrier Reef Reserve System,-87.846213,17.190549
Royal Palaces of Abomey,1.983333333,7.183333333
City of Potos¨ª,-65.749813,-19.599112
Jesuit Missions of the Chiquitos,-60.5,-16.0
Historic City of Sucre,-65.259592,-19.04799
Tiwanaku: Spiritual and Political Centre of the Tiwanaku Culture,-68.673278,-16.555003
Fuerte de Samaipata,-63.820485,-18.178323
Noel Kempff Mercado National Park,-60.86667,-14.26667
Old Bridge Area of the Old City of Mostar,17.815,43.33730556
Mehmed Pa?a Sokolovi? Bridge in Vi?egrad,19.288025,43.78144444
"Vjetrenica Cave, Ravno",17.98361111,42.83611111
Tsodilo,21.73333333,-18.75
Okavango Delta,22.9,-19.28333333
Historic Town of Ouro Preto,-43.50555556,-20.38888889
Historic Centre of the Town of Olinda,-34.845,-8.013333333
Historic Centre of Salvador de Bahia,-38.512981,-12.972917
Sanctuary of Bom Jesus do Congonhas,-43.860806,-20.508201
Igua?u National Park,-53.80014444,-25.44814722
Brasilia,-47.9,-15.78333
Serra da Capivara National Park,-42.652436,-8.718634
Historic Centre of S?o Lu¨ªs,-44.303369,-2.530054
Historic Centre of the Town of Diamantina,-43.59768,-18.244776
Discovery Coast Atlantic Forest Reserves,-39.25,-16.5
Atlantic Forest South-East Reserves,-48.0,-24.16667
Historic Centre of the Town of Goi¨¢s,-50.140164,-15.934231
Central Amazon Conservation Complex,-62.00833333,-2.333333333
Pantanal Conservation Area,-57.461874,-17.670318
Brazilian Atlantic Islands: Fernando de Noronha and Atol das Rocas Reserves,-32.42511111,-3.857944444
Cerrado Protected Areas: Chapada dos Veadeiros and Emas National Parks,-47.68461111,-14.00569444
Rio de Janeiro: Carioca Landscapes between the Mountain and the Sea,-43.29138889,-22.94777778
S?o Francisco Square in the Town of S?o Crist¨®v?o,-37.20537476,-11.01365544
Paraty and Ilha Grande ¨C Culture and Biodiversity,-44.68536944,-23.01860556
Pampulha Modern Ensemble,-43.97361111,-19.85194444
Valongo Wharf Archaeological Site,-43.18739444,-22.89711111
Len?¨®is Maranhenses National Park,-43.06361111,-2.536666667
S¨ªtio Roberto Burle Marx,-43.54622222,-23.02237778
Boyana Church,23.26618278,42.64463194
Madara Rider,27.118894,43.277375
Thracian Tomb of Kazanlak,25.399172,42.625774
Rock-Hewn Churches of Ivanovo,25.987893,43.694858
Rila Monastery,23.340187,42.133298
Ancient City of Nessebar,27.73602778,42.65911111
Srebarna Nature Reserve,27.07806,44.11444
Pirin National Park,23.43047222,41.74272222
Thracian Tomb of Sveshtari,26.66667,43.66667
Ruins of Lorop¨¦ni,-3.583333333,10.25
Ancient Ferrous Metallurgy Sites of Burkina Faso,-3.328986111,12.58775833
Royal Court of Ti¨¦b¨¦l¨¦,-0.961861111,11.08922222
"Cidade Velha, Historic Centre of Ribeira Grande",-23.60519444,14.91513889
Angkor,103.8333333,13.43333333
Temple of Preah Vihear,104.6838889,14.38833333
"Temple Zone of Sambor Prei Kuk, Archaeological Site of Ancient Ishanapura",105.0430556,12.8725
Koh Ker: Archaeological Site of Ancient Lingapura or Chok Gargyar,104.5372222,13.78305556
Dja Faunal Reserve,13.0,3.0
L¡¯Anse aux Meadows National Historic Site,-55.55,51.58472222
Nahanni National Park,-125.5894444,61.54722222
Dinosaur Provincial Park,-111.4922222,50.76777778
S<U>G</U>ang Gwaay,-131.2202778,52.095
Head-Smashed-In Buffalo Jump,-113.6520528,49.70840556
Wood Buffalo National Park,-112.2933333,59.35833333
Historic District of Old Qu¨¦bec,-71.21055556,46.80944444
Canadian Rocky Mountain Parks,-116.4797222,51.42472222
Gros Morne National Park,-57.53138889,49.6125
Miguasha National Park,-66.35305556,48.105
Old Town Lunenburg,-64.30916667,44.37611111
Rideau Canal,-75.765125,44.99438611
Joggins Fossil Cliffs,-64.43583333,45.70972222
Landscape of Grand Pr¨¦,-64.30722222,45.11833333
Red Bay Basque Whaling Station,-56.42952222,51.726925
Pimachiowin Aki,-95.41127778,51.82641667
Mistaken Point,-53.21111111,46.635
Tr¡¯ond?k-Klondike,-139.4399472,64.05034722
Writing-on-Stone / ?¨ªs¨ªnai¡¯pi,-111.6333333,49.075
Anticosti,-63.24527778,49.53861111
Manovo-Gounda St Floris National Park,21.5,9.0
Lakes of Ounianga,20.50555556,19.055
Ennedi Massif: Natural and Cultural Landscape,21.86277778,17.04166667
Rapa Nui National Park,-109.365683,-27.074403
Historic Quarter of the Seaport City of Valpara¨ªso,-71.628,-33.04063889
Churches of Chilo¨¦,-73.76666667,-42.5
Humberstone and Santa Laura Saltpeter Works,-69.79406,-20.20582
Sewell Mining Town,-70.38277778,-34.08444444
Settlement and Artificial Mummification of the Chinchorro Culture in the Arica and Parinacota Region,-70.32157222,-18.48196111
Mount Taishan,117.1,36.26667
The Great Wall,116.08333,40.41667
Imperial Palaces of the Ming and Qing Dynasties in Beijing and Shenyang,123.4469444,41.79416667
Mogao Caves,94.81667,40.13333
Mausoleum of the First Qin Emperor,109.259951,34.381311
Peking Man Site at Zhoukoudian,115.922702,39.689449
Mount Huangshan,118.155083,30.145333
Jiuzhaigou Valley Scenic and Historic Interest Area,103.91667,33.08333
Huanglong Scenic and Historic Interest Area,103.82222,32.75417
Wulingyuan Scenic and Historic Interest Area,110.5,29.33333
"Mountain Resort and its Outlying Temples, Chengde",117.93833,40.98694
Temple and Cemetery of Confucius and the Kong Family Mansion in Qufu,116.994561,35.613215
Ancient Building Complex in the Wudang Mountains,111.0,32.46667
"Historic Ensemble of the Potala Palace, Lhasa",91.11717,29.65792
Lushan National Park,115.8666667,29.43333333
"Mount Emei Scenic Area, including Leshan Giant Buddha Scenic Area",103.76925,29.5449
Old Town of Lijiang,100.23333,26.86667
Ancient City of Ping Yao,112.15444,37.20139
Classical Gardens of Suzhou,120.45,31.31666667
"Summer Palace, an Imperial Garden in Beijing",116.1411111,39.91055556
Temple of Heaven: an Imperial Sacrificial Altar in Beijing,116.4447222,39.84555556
Mount Wuyi,117.7252778,27.72638889
Dazu Rock Carvings,105.705,29.70111
Mount Qingcheng and the Dujiangyan Irrigation System,103.60528,31.00167
Ancient Villages in Southern Anhui ¨C Xidi and Hongcun,117.9875,29.90444444
Longmen Grottoes,112.4666667,34.46666667
Imperial Tombs of the Ming and Qing Dynasties,124.7938889,41.70722222
Yungang Grottoes,113.12222,40.10972
Three Parallel Rivers of Yunnan Protected Areas,98.40638889,27.895
Historic Centre of Macao,113.5364611,22.19129194
Cultural Landscape of Honghe Hani Rice Terraces,102.7799806,23.09327778
Kaiping Diaolou and Villages,112.5658611,22.28551944
Fujian <em>Tulou</em>,117.6858333,25.02305556
Yin Xu,114.3138889,36.12666667
Capital Cities and Tombs of the Ancient Koguryo Kingdom,126.1872222,41.15694444
"Sichuan Giant Panda Sanctuaries - Wolong, Mt Siguniang and Jiajin Mountains",103.0,30.83333333
South China Karst,110.3544444,24.92333333
Mount Wutai,113.5633333,39.03055556
Mount Sanqingshan National Park,118.0644444,28.91583333
Historic Monuments of Dengfeng in ¡°The Centre of Heaven and Earth¡±,113.0677194,34.45874722
West Lake Cultural Landscape of Hangzhou,120.1408333,30.2375
China Danxia,106.0425,28.42194444
Chengjiang Fossil Site,102.9772222,24.66888889
Site of Xanadu,116.1851278,42.358
Xinjiang Tianshan,80.35416667,41.96833333
The Grand Canal,112.4683333,34.69388889
Tusi Sites,109.9669444,28.99861111
Zuojiang Huashan Rock Art Cultural Landscape,107.0230556,22.25555556
Hubei Shennongjia,110.2077778,31.46972222
Qinghai Hoh Xil,92.43916667,35.38027778
"Kulangsu, a Historic International Settlement",118.0619444,24.4475
Fanjingshan,108.68,27.89555556
Quanzhou: Emporium of the World in Song-Yuan China,118.4441667,24.71027778
Archaeological Ruins of Liangzhu City,119.9908333,30.39555556
Migratory Bird Sanctuaries along the Coast of Yellow Sea-Bohai Gulf of China,121.9993889,31.51291667
Badain Jaran Desert - Towers of Sand and Lakes,102.2894444,39.88972222
Cultural Landscape of Old Tea Forests of the Jingmai Mountain in Pu¡¯er,100.0075,22.18416667
Beijing Central Axis: A Building Ensemble Exhibiting the Ideal Order of the Chinese Capital,116.3913889,39.90722222
"Port, Fortresses and Group of Monuments, Cartagena",-75.53333333,10.41666667
Los Kat¨ªos National Park,-77.146271,7.803975
Historic Centre of Santa Cruz de Mompox,-74.423084,9.240492
National Archeological Park of Tierradentro,-76.03333333,2.583333333
San Agust¨ªn Archaeological Park,-76.23333333,1.916666667
Coffee Cultural Landscape of Colombia,-75.773082,4.889476
Chiribiquete National Park ¨C ¡°The Maloca of the Jaguar¡±,-72.79722222,0.525277778
Malpelo Fauna and Flora Sanctuary,-81.607572,4.003344
Forest Massif of Odzala-Kokoua,14.86027778,1.335555556
Cocos Island National Park,-87.06666667,5.533333333
Area de Conservaci¨®n Guanacaste,-85.61666667,10.85
Precolumbian Chiefdom Settlements with Stone Spheres of the Diqu¨ªs,-83.502539,8.938453
Ta? National Park,-7.095277778,5.648888889
Como¨¦ National Park,-4.0,9.0
Historic Town of Grand-Bassam,-3.736388889,5.195833333
Sudanese style mosques in northern C?te d¡¯Ivoire,-6.410166667,10.49031667
Old City of Dubrovnik,18.10886111,42.64142111
Historical Complex of Split with the Palace of Diocletian,16.43916667,43.50888889
Plitvice Lakes National Park,15.61444,44.87778
Episcopal Complex of the Euphrasian Basilica in the Historic Centre of Pore?,13.59333333,45.22858333
Historic City of Trogir,16.25136111,43.51708333
The Cathedral of St James in ?ibenik,15.89038,43.73629
Stari Grad Plain,16.63861111,43.18166667
Old Havana and its Fortification System,-82.35,23.13333333
Trinidad and the Valley de los Ingenios,-79.98444444,21.80305556
Alejandro de Humboldt National Park,-75.0,20.45
Vi?ales Valley,-83.71667,22.61667
"San Pedro de la Roca Castle, Santiago de Cuba",-75.870441,19.968446
Desembarco del Granma National Park,-77.63333,19.88333
Archaeological Landscape of the First Coffee Plantations in the South-East of Cuba,-75.39138889,20.03
Urban Historic Centre of Cienfuegos,-80.452183,22.145887
Historic Centre of Camag¨¹ey,-77.91861111,21.37861111
Paphos,32.40556,34.75833
Painted Churches in the Troodos Region,33.09583333,34.92027778
Choirokoitia,33.34394315,34.79674067
Historic Centre of Prague,14.41944,50.08972
Historic Centre of ?esk? Krumlov,14.31502778,48.81069444
Historic Centre of Tel?,15.45397222,49.18413889
Pilgrimage Church of St John of Nepomuk at Zelen¨¢ Hora,15.94205833,49.5802
Kutn¨¢ Hora: Historical Town Centre with the Church of St Barbara and the Cathedral of Our Lady at Sedlec,15.26666667,49.95
Lednice-Valtice Cultural Landscape,16.775,48.77583
Holy Trinity Column in Olomouc,17.25045833,49.59393611
Gardens and Castle at Krom¨§?¨ª?,17.37722222,49.3
Hola?ovice Historic Village,14.27261111,48.96963889
Litomy?l Castle,16.31444,49.87361
Tugendhat Villa in Brno,16.61605556,49.20718333
Jewish Quarter and St Procopius' Basilica in T?eb¨ª?,15.87888889,49.21722222
?atec and the Landscape of Saaz Hops,13.62,50.32027778
Landscape for Breeding and Training of Ceremonial Carriage Horses at Kladruby nad Labem,15.48425833,50.05665
Complex of Koguryo Tombs,125.415,38.86305556
Historic Monuments and Sites in Kaesong,126.5080556,37.98166667
Virunga National Park,29.16666667,0.916666667
Garamba National Park,29.25,4.0
Kahuzi-Biega National Park,28.180743,-2.334053
Salonga National Park,21.0,-2.0
Okapi Wildlife Reserve,28.5,2.0
Roskilde Cathedral,12.07972222,55.64222222
Kronborg Castle,12.62083333,56.03889
"Jelling Mounds, Runic Stones and Church",9.42,55.75638889
Ilulissat Icefjord,-49.5,69.13333333
Stevns Klint,12.42333333,55.26722222
The par force hunting landscape in North Zealand,12.35777778,55.91361111
Kujataa Greenland: Norse and Inuit Farming at the Edge of the Ice Cap,-45.59805556,61.16444444
Aasivissuit ¨C Nipisat. Inuit Hunting Ground between Ice and Sea,-51.43320556,67.06393056
Viking-Age Ring Fortresses,9.254722222,56.99527778
Morne Trois Pitons National Park,-61.30661,15.331113
Colonial City of Santo Domingo,-69.885841,18.472394
Gal¨¢pagos Islands,-90.501319,-0.68986
City of Quito,-78.51208333,-0.22
Sangay National Park,-78.33333,-1.83333
Historic Centre of Santa Ana de los R¨ªos de Cuenca,-79.004382,-2.897447
Memphis and its Necropolis ¨C the Pyramid Fields from Giza to Dahshur,31.13041,29.97604
Ancient Thebes with its Necropolis,32.6,25.73333
Nubian Monuments from Abu Simbel to Philae,31.62580556,22.33722222
Historic Cairo,31.26111,30.05
Abu Mena,29.66666667,30.83583333
Saint Catherine Area,33.97543,28.55623
Wadi Al-Hitan (Whale Valley),30.18333,29.33333
Joya de Cer¨¦n Archaeological Site,-89.36916667,13.8275
Asmara: A Modernist African City,38.93583333,15.33527778
Historic Centre (Old Town) of Tallinn,24.73333333,59.43333
Simien National Park,38.06666667,13.18333333
Lower Valley of the Awash,40.57939,11.10006
Tiya,38.6121,8.43491
Melka Kunture and Balchit: Archaeological and Palaeontological Sites in the Highland Area of Ethiopia,38.59908333,8.703472222
Aksum,38.71861,14.13019
Lower Valley of the Omo,35.96666667,4.8
"Rock-Hewn Churches, Lalibela",39.04042,12.02935
"Fasil Ghebbi, Gondar Region",37.4697,12.607909
Bale Mountains National Park,39.74888889,6.797777778
"Harar Jugol, the Fortified Historic Town",42.13777778,9.308888889
Konso Cultural Landscape,37.4,5.3
The Gedeo Cultural Landscape,38.28777778,6.248888889
Levuka Historical Port Town,178.8345333,-17.68337778
Bronze Age Burial Site of Sammallahdenm?ki,21.7775,61.12056
Old Rauma,21.51167,61.12806
Fortress of Suomenlinna,24.98722,60.14722
Pet?j?vesi Old Church,25.18333,62.25
Verla Groundwood and Board Mill,26.64083,61.06194
Mont-Saint-Michel and its Bay,-1.51056,48.63556
Chartres Cathedral,1.487222222,48.4475
Palace and Park of Versailles,2.119444444,48.805
"V¨¦zelay, Church and Hill",3.748333333,47.46638889
Prehistoric Sites and Decorated Caves of the V¨¦z¨¨re Valley,1.17,45.0575
Palace and Park of Fontainebleau,2.698055556,48.40194444
Amiens Cathedral,2.301666667,49.895
"Roman Theatre and its Surroundings and the ""Triumphal Arch"" of Orange",4.808416667,44.13572222
"Arles, Roman and Romanesque Monuments",4.630694444,43.67763889
Cistercian Abbey of Fontenay,4.38911,47.63944
"From the Great Saltworks of Salins-les-Bains to the Royal Saltworks of Arc-et-Senans, the Production of Open-pan Salt",5.876388889,46.9375
"Historic Centre of Avignon: Papal Palace, Episcopal Ensemble and Avignon Bridge",4.806111111,43.95277778
"Place Stanislas, Place de la Carri¨¨re and Place d'Alliance in Nancy",6.183333333,48.69361111
Abbey Church of Saint-Savin sur Gartempe,0.86611,46.56472
"Gulf of Porto: Calanche of Piana, Gulf of Girolata, Scandola Reserve",8.628833333,42.32519444
Pont du Gard (Roman Aqueduct),4.535277778,43.94722222
Historic Fortified City of Carcassonne,2.3636562,43.2070631
"Strasbourg, Grande-?le and <em>Neustadt</em>",7.748888889,48.58444444
"Paris, Banks of the Seine",2.321138889,48.8655
"Cathedral of Notre-Dame, Former Abbey of Saint-R¨¦mi and Palace of Tau, Reims",4.032777778,49.25333333
Bourges Cathedral,2.398333333,47.08222222
Canal du Midi,1.416388889,43.61138889
Routes of Santiago de Compostela in France,0.722944444,45.18405556
Historic Site of Lyon,4.83333,45.76722
"Provins, Town of Medieval Fairs",3.298888889,48.55972222
Jurisdiction of Saint-Emilion,-0.155277778,44.89472222
The Loire Valley between Sully-sur-Loire and Chalonnes,0.70278,47.39889
Lagoons of New Caledonia: Reef Diversity and Associated Ecosystems,164.5663889,-20.41194444
"The Causses and the C¨¦vennes, Mediterranean agro-pastoral Cultural Landscape",3.473055556,44.22027778
"Le Havre, the City Rebuilt by Auguste Perret",0.1075,49.49278
"Bordeaux, Port of the Moon",-0.572222222,44.83888889
Fortifications of Vauban,6.026944444,47.23611111
"Pitons, cirques and remparts of Reunion Island",55.48,-21.09944444
Episcopal City of Albi,2.144166667,43.92916667
Nord-Pas de Calais Mining Basin,3.546111111,50.4625
"The Climats, terroirs of Burgundy",4.864444444,47.05805556
"Decorated Cave of Pont d¡¯Arc, known as Grotte Chauvet-Pont d¡¯Arc, Ard¨¨che",4.416111111,44.3875
Cha?ne des Puys - Limagne fault tectonic arena,2.965111111,45.77938889
"Champagne Hillsides, Houses and Cellars",3.946111111,49.0775
Taputapu¨¡tea,-151.3723778,-16.8414
The Maison Carr¨¦e of N?mes,4.356194444,43.83822222
French Austral Lands and Seas,69.35280556,-49.38036111
Cordouan Lighthouse,-1.173333333,45.58630556
"Nice, Winter Resort Town of the Riviera",7.272305556,43.70169444
Volcanoes and Forests of Mount Pel¨¦e and the Pitons of Northern Martinique,-61.17586111,14.82330278
Te Henua Enata ¨C The Marquesas Islands,-140.6460475,-7.969894444
Ecosystem and Relict Cultural Landscape of Lop¨¦-Okanda,11.5,-0.5
Ivindo National Park,12.64083333,0.406111111
Kunta Kinteh Island and Related Sites,-16.35719444,13.31616667
Historical Monuments of Mtskheta,44.72102778,41.84227778
Upper Svaneti,43.009,42.914
Gelati Monastery,42.76833333,42.29472222
Colchic Rainforests and Wetlands,41.9512,41.70227778
Aachen Cathedral,6.083919968,50.77474685
Speyer Cathedral,8.442388889,49.31722222
W¨¹rzburg Residence with the Court Gardens and Residence Square,9.93889,49.79278
St Mary's Cathedral and St Michael's Church at Hildesheim,9.94389,52.15278
Pilgrimage Church of Wies,10.90013889,47.68127778
Hanseatic City of L¨¹beck,10.69167,53.86667
Castles of Augustusburg and Falkenlust at Br¨¹hl,6.909777778,50.82502778
Cologne Cathedral,6.957222222,50.94111111
"Roman Monuments, Cathedral of St Peter and Church of Our Lady in Trier",6.633333333,49.75
Abbey and Altenm¨¹nster of Lorsch,8.56858,49.65369
Palaces and Parks of Potsdam and Berlin,13.03333333,52.4
Garden Kingdom of Dessau-W?rlitz,12.42083,51.8425
"Collegiate Church, Castle and Old Town of Quedlinburg",11.15,51.78333
Maulbronn Monastery Complex,8.81306,49.00083
"Mines of Rammelsberg, Historic Town of Goslar and Upper Harz Water Management System",10.34,51.82
Town of Bamberg,10.88888889,49.89166667
V?lklingen Ironworks,6.844222222,49.24872222
Messel Pit Fossil Site,8.757,49.918
"Bauhaus and its Sites in Weimar, Dessau and Bernau",11.3295,50.97477778
Luther Memorials in Eisleben and Wittenberg,12.65278,51.86472
Classical Weimar,11.32861,50.9775
"Museumsinsel (Museum Island), Berlin",13.39861111,52.51972222
Wartburg Castle,10.307,50.96677778
Monastic Island of Reichenau,9.061305556,47.69872222
Zollverein Coal Mine Industrial Complex in Essen,7.046111111,51.49138889
Upper Middle Rhine Valley,7.694166667,50.17361111
Historic Centres of Stralsund and Wismar,13.08527778,54.3025
Town Hall and Roland on the Marketplace of Bremen,8.807472222,53.07597222
Old town of Regensburg with Stadtamhof,12.09916667,49.02055556
Berlin Modernism Housing Estates,13.45,52.44833333
Fagus Factory in Alfeld,9.812222222,51.98388889
Margravial Opera House Bayreuth,11.57849794,49.94439311
Bergpark Wilhelmsh?he,9.393055556,51.31583333
Carolingian Westwork and Civitas Corvey,9.41025,51.77827778
Speicherstadt and Kontorhaus District with Chilehaus,9.999444444,53.54555556
Naumburg Cathedral,11.804,51.15480556
Caves and Ice Age Art in the Swabian Jura,9.765555556,48.38777778
Archaeological Border complex of Hedeby and the Danevirke,9.454111111,54.46194444
Water Management System of Augsburg,10.902,48.36547222
Mathildenh?he Darmstadt,8.6675,49.87638889
"ShUM Sites of Speyer, Worms and Mainz",8.439538889,49.31621111
Jewish-Medieval Heritage of Erfurt,11.02923333,50.97866389
Schwerin Residence Ensemble,11.41888889,53.62416667
"Forts and Castles, Volta, Greater Accra, Central and Western Regions",-0.49361,5.39103
Asante Traditional Buildings,-1.625833333,6.401111111
Temple of Apollo Epicurius at Bassae,21.89694,37.43498
Archaeological Site of Delphi,22.49617,38.48149
"Acropolis, Athens",23.72618,37.97087
Mount Athos,24.21667,40.26667
Meteora,21.63333,39.71667
Paleochristian and Byzantine Monuments of Thessalonika,22.965,40.63833
Sanctuary of Asklepios at Epidaurus,23.08055556,37.6
Medieval City of Rhodes,28.22778,36.44722
Archaeological Site of Mystras,22.36667,37.08056
Archaeological Site of Olympia,21.634,37.64
Delos,25.26667,37.4
"Monasteries of Daphni, Hosios Loukas and Nea Moni of Chios",22.74666667,38.39527778
Pythagoreion and Heraion of Samos,26.94333,37.69083
Archaeological Site of Aigai (modern name Vergina),22.31833,40.47139
Archaeological Sites of Mycenae and Tiryns,22.75,37.73333333
The Historic Centre (Chor¨¢) with the Monastery of Saint-John the Theologian and the Cave of the Apocalypse on the Island of P¨¢tmos,26.55,37.3
Old Town of Corfu,19.9275,39.62394139
Archaeological Site of Philippi,24.28527778,41.01472222
Zagori Cultural Landscape,20.81972222,39.90527778
Tikal National Park,-89.61666667,17.21666667
Antigua Guatemala,-90.73381,14.556504
Archaeological Park and Ruins of Quirigua,-89.04025,15.27059
National Archaeological Park Tak¡¯alik Ab¡¯aj,-91.7325,14.63861111
"National History Park ¨C Citadel, Sans Souci, Ramiers",-72.234268,19.573025
Vatican City,12.45736,41.90216
Maya Site of Copan,-89.13333,14.85
R¨ªo Pl¨¢tano Biosphere Reserve,-84.675,15.74444444
"Budapest, including the Banks of the Danube, the Buda Castle Quarter and Andr¨¢ssy Avenue",19.07067,47.48242
Old Village of Holl¨®k? and its Surroundings,19.52917,47.99444
Hortob¨¢gy National Park - the <i>Puszta</i>,21.15678,47.59458
Millenary Benedictine Abbey of Pannonhalma and its Natural Environment,17.78444,47.55889
Early Christian Necropolis of P¨¦cs (Sopianae),18.22778,46.07444
Tokaj Wine Region Historic Cultural Landscape,21.35,48.15
?ingvellir National Park,-21.03725,64.25380556
Surtsey,-20.60222222,63.30305556
Vatnaj?kull National Park - Dynamic Nature of Fire and Ice,-16.88154044,64.577363
Red Fort Complex,77.24083333,28.65555556
"Humayun's Tomb, Delhi",77.25056,28.59333
"Qutb Minar and its Monuments, Delhi",77.18528,28.52583
Churches and Convents of Goa,73.91167,15.50222
Group of Monuments at Pattadakal,75.81667,15.94833
Khajuraho Group of Monuments,79.92222,24.85222
Group of Monuments at Hampi,76.47167,15.31444
Ajanta Caves,75.70025,20.553111
Ellora Caves,75.17917,20.02639
Elephanta Caves,72.93583,18.96667
"Sun Temple, Kon?rak",86.09472,19.8875
Hill Forts of Rajasthan,74.64611111,24.88333333
Group of Monuments at Mahabalipuram,80.19167,12.61667
Great Living Chola Temples,79.1325,10.78305556
Agra Fort,78.021528,27.179806
Taj Mahal,78.04222,27.17417
Fatehpur Sikri,77.6665,27.097528
Nanda Devi and Valley of Flowers National Parks,79.66667,30.71667
Kaziranga National Park,93.41666667,26.66666667
Manas Wildlife Sanctuary,91.03055556,26.725
Keoladeo National Park,77.50861111,27.15888889
Sundarbans National Park,88.89583333,21.945
Buddhist Monuments at Sanchi,77.73972,23.47944
"Rani-ki-Vav (the Queen¡¯s Stepwell) at Patan, Gujarat",72.10166667,23.85888889
Rock Shelters of Bhimbetka,77.58333333,22.92777778
Mountain Railways of India,76.93583,11.51028
Chhatrapati Shivaji Terminus (formerly Victoria Terminus),72.83620278,18.94012222
Mahabodhi Temple Complex at Bodh Gaya,84.99389,24.69528
Champaner-Pavagadh Archaeological Park,73.53333333,22.48333333
"The Jantar Mantar, Jaipur",75.825,26.92472222
Western Ghats,77.24972222,8.529722222
Santiniketan,87.68497222,23.68027778
Great Himalayan National Park Conservation Area,77.58333333,31.83333333
Victorian Gothic and Art Deco Ensembles of Mumbai,72.83008333,18.92980556
"Archaeological Site of Nalanda Mahavihara at Nalanda, Bihar",85.44388889,25.13666667
Khangchendzonga National Park,88.37722222,27.76472222
Historic City of Ahmadabad,72.58805556,23.02638889
"Kakatiya Rudreshwara (Ramappa) Temple, Telangana",79.94320556,18.25913333
"Jaipur City, Rajasthan",75.82186111,26.92427778
Dholavira: a Harappan City,70.21330278,23.88840833
Sacred Ensembles of the Hoysalas,75.99407222,13.21245278
Moidams ¨C the Mound-Burial System of the Ahom Dynasty,94.87635,26.94117472
Borobudur Temple Compounds,110.20361,-7.60778
Sangiran Early Man Site,110.8166667,-7.4
Ujung Kulon National Park,105.3333333,-6.75
Komodo National Park,119.48944,-8.54333
Prambanan Temple Compounds,110.49167,-7.75222
Lorentz National Park,137.83333,-4.75
Tropical Rainforest Heritage of Sumatra,101.5,-2.5
Cultural Landscape of Bali Province: the <em>Subak</em> System as a Manifestation of the <em>Tri Hita Karana</em> Philosophy,115.4027778,-8.259166667
Ombilin Coal Mining Heritage of Sawahlunto,100.7378833,-0.766625556
The Cosmological Axis of Yogyakarta and its Historic Landmarks,110.3647778,-7.801388889
Tchogha Zanbil,48.522118,32.00857
Persepolis,52.89028,29.93444
"Meidan Emam, Esfahan",51.67777778,32.65745
Takht-e Soleyman,47.235,36.60388889
Pasargadae,53.16729,30.19383
Soltaniyeh,48.79667,36.43528
Bam and its Cultural Landscape,58.36666667,29.11683
Bisotun,47.43666667,34.38833333
Armenian Monastic Ensembles of Iran,45.47333333,38.97888889
Shushtar Historical Hydraulic System,48.83583333,32.01861111
Sheikh Safi al-din Kh¨¡neg¨¡h and Shrine Ensemble in Ardabil,48.29138889,38.24861111
Tabriz Historic Bazaar Complex,46.29305556,38.08138889
The Persian Garden,53.16666667,30.16666667
Masjed-e J¨¡m¨¦ of Isfahan,51.68527778,32.66972222
Gonbad-e Q¨¡bus,55.169,37.25802778
Golestan Palace,51.42051111,35.68036667
Cultural Landscape of Maymand,55.37555556,30.16805556
Susa,48.25611111,32.18944444
Shahr-i Sokhta,61.32777778,30.59388889
Lut Desert,58.83888889,30.21611111
The Persian Qanat,58.65444444,34.29
Historic City of Yazd,54.36916667,31.90138889
Sassanid Archaeological Landscape of Fars Region,51.57045,29.77748056
Trans-Iranian Railway,51.39833333,35.65830556
Cultural Landscape of Hawraman/Uramanat,46.47785,35.10735833
The Persian Caravanserai,51.42013611,35.05835278
Hegmataneh,48.51668611,34.80238889
Samarra Archaeological City,43.82354306,34.34098944
Hatra,42.71833,35.58806
Babylon,44.42083333,32.54196944
Ashur (Qal'at Sherqat),43.26111111,35.45666667
Erbil Citadel,44.00916667,36.19111111
The Ahwar of Southern Iraq: Refuge of Biodiversity and the Relict Landscape of the Mesopotamian Cities,47.65777778,31.56222222
Br¨² na B¨®inne - Archaeological Ensemble of the Bend of the Boyne,-6.4755,53.69469444
Sceilg Mhich¨ªl,-10.53861,51.77194
Masada,35.35361111,31.31555556
Old City of Acre,35.06888889,32.92166667
White City of Tel-Aviv ¨C the Modern Movement,34.77416667,32.07777778
Incense Route - Desert Cities in the Negev,35.00916667,30.57388889
"Biblical Tels - Megiddo, Hazor, Beer Sheba",35.18222,32.59722
Bah¨¢¡¯i Holy Places in Haifa and the Western Galilee,34.97164889,32.82939667
Caves of Maresha and Bet-Guvrin in the Judean Lowlands as a Microcosm of the Land of the Caves,34.9,31.60111111
Sites of Human Evolution at Mount Carmel: The Nahal Me¡¯arot / Wadi el-Mughara Caves,34.96805556,32.66861111
Necropolis of Bet She¡¯arim: A Landmark of Jewish Renewal,35.12694444,32.70222222
Church and Dominican Convent of Santa Maria delle Grazie with ¡°The Last Supper¡± by Leonardo da Vinci,9.171,45.466
Rock Drawings in Valcamonica,10.29733333,45.95705556
Historic Centre of Florence,11.25611,43.77306
Medici Villas and Gardens in Tuscany,11.30416667,43.85777778
Venice and its Lagoon,12.33894444,45.43430556
"Piazza del Duomo, Pisa",10.39638889,43.72305556
Castel del Monte,16.27094444,41.08480556
"18th-Century Royal Palace at Caserta with the Park, the Aqueduct of Vanvitelli, and the San Leucio Complex",14.32639,41.07333
Historic Centre of San Gimignano,11.04167,43.46806
The Sassi and the Park of the Rupestrian Churches of Matera,16.61027778,40.66638889
City of Vicenza and the Palladian Villas of the Veneto,11.54944444,45.54916667
Historic Centre of Siena,11.33166667,43.31861111
Historic Centre of Naples,14.26277778,40.85138889
Crespi d'Adda,9.53833,45.59333
"Ferrara, City of the Renaissance, and its Po Delta",11.61944444,44.83777778
The <I>Trulli</I> of Alberobello,17.23694,40.7825
Early Christian Monuments of Ravenna,12.19625,44.42041667
Historic Centre of the City of Pienza,11.67861111,43.07694444
City of Verona,10.99388889,45.43861111
Residences of the Royal House of Savoy,7.68572,45.07253
"Botanical Garden (Orto Botanico), Padua",11.88066667,45.39911111
Archaeological Area and the Patriarchal Basilica of Aquileia,13.3675,45.76833333
"Portovenere, Cinque Terre, and the Islands (Palmaria, Tino and Tinetto)",9.72917,44.10694
"Cathedral, Torre Civica and Piazza Grande, Modena",10.92568,44.64624
Historic Centre of Urbino,12.63333,43.725
"Archaeological Areas of Pompei, Herculaneum and Torre Annunziata",14.48333333,40.75
Costiera Amalfitana,14.60277778,40.63333333
Archaeological Area of Agrigento,13.59333333,37.28972222
Villa Romana del Casale,14.33417,37.36611
Su Nuraxi di Barumini,8.991388889,39.70583333
"Cilento and Vallo di Diano National Park with the Archeological Sites of Paestum and Velia, and the Certosa di Padula",15.26666667,40.28333333
Villa Adriana (Tivoli),12.77197222,41.94416667
Isole Eolie (Aeolian Islands),14.94558333,38.48786111
"Assisi, the Basilica of San Francesco and Other Franciscan Sites",12.62244444,43.06616667
Late Baroque Towns of the Val di Noto (South-Eastern Sicily),15.06891667,36.89319444
"Villa d'Este, Tivoli",12.79625,41.96391667
Val d'Orcia,11.55,43.06666667
<I>Sacri Monti</I> of Piedmont and Lombardy,9.169555556,45.97455556
Etruscan Necropolises of Cerveteri and Tarquinia,12.10188889,42.00683333
Syracuse and the Rocky Necropolis of Pantalica,15.29306,37.05944
Genoa: <i>Le Strade Nuove</i> and the system of the<i> Palazzi dei Rolli</i>,8.931111111,44.41222222
The Dolomites,12.16305556,46.61305556
Mantua and Sabbioneta,10.79444444,45.15944444
Longobards in Italy. Places of the Power (568-774 A.D.),13.43305556,46.09416667
Vineyard Landscape of Piedmont: Langhe-Roero and Monferrato,7.963611111,44.60861111
Mount Etna,14.99666667,37.75611111
Arab-Norman Palermo and the Cathedral Churches of Cefal¨² and Monreale,13.35305556,38.11083333
"Ivrea, industrial city of the 20th century",7.869166667,45.4575
Le Colline del Prosecco di Conegliano e Valdobbiadene,12.22611111,45.95302778
Padua¡¯s fourteenth-century fresco cycles,11.87961111,45.41188889
The Porticoes of Bologna,11.33277778,44.49138889
Evaporitic Karst and Caves of Northern Apennines,10.38891667,44.37994444
Via Appia. <em>Regina Viarum</em>,13.26272222,41.29272222
Blue and John Crow Mountains,-76.57111111,18.0775
Buddhist Monuments in the Horyu-ji Area,135.7333333,34.61666667
Himeji-jo,134.7,34.83333333
Yakushima,130.5086111,30.315
Shirakami-Sanchi,140.1155556,40.4525
"Historic Monuments of Ancient Kyoto (Kyoto, Uji and Otsu Cities)",135.7694444,34.98055556
Historic Villages of Shirakawa-go and Gokayama,136.8833333,36.4
Hiroshima Peace Memorial (Genbaku Dome),132.453611,34.395556
Itsukushima Shinto Shrine,132.3246389,34.29441667
Historic Monuments of Ancient Nara,135.8394444,34.67555556
Shrines and Temples of Nikko,139.6105556,36.7475
Gusuku Sites and Related Properties of the Kingdom of Ryukyu,127.6827778,26.20861111
Sacred Sites and Pilgrimage Routes in the Kii Mountain Range,135.7763889,33.83694444
Shiretoko,144.96583,43.94944
Iwami Ginzan Silver Mine and its Cultural Landscape,132.435,35.11277778
"Hiraizumi ¨C Temples, Gardens and Archaeological Sites Representing the Buddhist Pure Land",141.1077778,39.00111111
Ogasawara Islands,142.0997222,27.71833333
"Fujisan, sacred place and source of artistic inspiration",138.7275,35.36083333
Tomioka Silk Mill and Related Sites,138.8877778,36.25527778
"Sites of Japan¡¯s Meiji Industrial Revolution: Iron and Steel, Shipbuilding and Coal Mining",131.4122222,34.43055556
Hidden Christian Sites in the Nagasaki Region,128.9038889,32.80222222
Sacred Island of Okinoshima and Associated Sites in the Munakata Region,130.1055556,34.245
"Amami-Oshima Island, Tokunoshima Island, Northern part of Okinawa Island, and Iriomote Island",129.3783333,28.27916667
Mozu-Furuichi Kofun Group: Mounded Tombs of Ancient Japan,135.6094444,34.56222222
Jomon Prehistoric Sites in Northern Japan,140.5522222,41.06555556
Sado Island Gold Mines,138.2577778,38.04083333
Old City of Jerusalem and its Walls,35.23166667,31.77777778
Petra,35.44333,30.33056
Quseir Amra,36.58730556,31.80180556
As-Salt - The Place of Tolerance and Urban Hospitality,35.72830556,32.04261111
Um er-Rasas (Kastrom Mefa'a),35.92056,31.50167
Wadi Rum Protected Area,35.43388889,29.63972222
Baptism Site ¡°Bethany Beyond the Jordan¡± (Al-Maghtas),35.55277778,31.83722222
Umm Al-Jim¨¡l,36.37,32.32694444
Saryarka ¨C Steppe and Lakes of Northern Kazakhstan,69.18888889,50.43333333
Mausoleum of Khoja Ahmed Yasawi,68.27105556,43.29769444
Petroglyphs of the Archaeological Landscape of Tanbaly,75.535,43.80333333
Mount Kenya National Park/Natural Forest,37.31555556,-0.155
Lake Turkana National Parks,36.50366667,3.051305556
Lamu Old Town,40.8525,-2.284444444
Kenya Lake System in the Great Rift Valley,36.24,-0.4425
Sacred Mijikenda Kaya Forests,39.59611111,-3.931944444
"Fort Jesus, Mombasa",39.67944444,-4.062777778
Thimlich Ohinga Archaeological Site,34.326107,-0.891338056
The Historic Town and Archaeological Site of Gedi,40.01726389,-3.310263889
Phoenix Islands Protected Area,-172.650203,-3.864454
Sulaiman-Too Sacred Mountain,72.78277778,40.53111111
Town of Luang Prabang,102.13333,19.88889
Vat Phou and Associated Ancient Settlements within the Champasak Cultural Landscape,105.8222222,14.84833333
Megalithic Jar Sites in Xiengkhuang ¨C Plain of Jars,103.1522222,19.43105556
Historic Centre of Riga,24.11667,56.95417
Old town of Kuld¨©ga,21.97152778,56.96775
Anjar,35.93333333,33.73194444
Baalbek,36.20416667,34.00666667
Byblos,35.64555556,34.11917
Tyre,35.19583333,33.26916667
Ouadi Qadisha (the Holy Valley) and the Forest of the Cedars of God (Horsh Arz el-Rab),36.95111111,34.25388889
Rachid Karami International Fair-Tripoli,35.82416667,34.43777778
Archaeological Site of Leptis Magna,14.29306,32.63833
Archaeological Site of Sabratha,12.485,32.80528
Archaeological Site of Cyrene,21.85833,32.825
Rock-Art Sites of Tadrart Acacus,10.33333,24.83333
Old Town of Ghadam¨¨s,9.5,30.13333333
Vilnius Historic Centre,25.29306,54.68667
Kernav? Archaeological Site (Cultural Reserve of Kernav?),24.853,54.879
"Modernist Kaunas: Architecture of Optimism, 1919-1939",23.92916667,54.89694444
City of Luxembourg: its Old Quarters and Fortifications,6.13333,49.61
Andrefana Dry Forests,44.76738611,-18.66157778
Royal Hill of Ambohimanga,47.56278,-18.75917
Rainforests of the Atsinanana,49.7025,-14.45972222
Lake Malawi National Park,34.88333,-14.03333
Chongoni Rock-Art Area,34.27916667,-14.29333333
Kinabalu Park,116.5,6.25
Gunung Mulu National Park,114.91667,4.13333
The Archaeological Heritage of Niah National Park¡¯s Caves Complex,113.7813889,3.813888889
"Melaka and George Town, Historic Cities of the Straits of Malacca",100.3458333,5.421388889
Archaeological Heritage of the Lenggong Valley,100.9723278,5.067908333
Old Towns of Djenn¨¦,-4.555,13.90639
Timbuktu,-2.999444444,16.77333333
Cliff of Bandiagara (Land of the Dogons),-3.41667,14.33333
Tomb of Askia,-0.04456,16.2898
?al Saflieni Hypogeum,14.50688337,35.86959
City of Valletta,14.51444,35.90056
Megalithic Temples of Malta,14.26947,36.04908
Bikini Atoll Nuclear Test Site,165.3805556,11.6
Banc d'Arguin National Park,-16.10889,20.23472
"Ancient <I>Ksour</I> of Ouadane, Chinguetti, Tichitt and Oualata",-11.62361,20.92889
Aapravasi Ghat,57.50316667,-20.15863889
Le Morne Cultural Landscape,57.32833333,-20.45194444
Sian Ka'an,-87.79167,19.38333
Pre-Hispanic City and National Park of Palenque,-92.05,17.48333
Historic Centre of Mexico City and Xochimilco,-99.13278,19.41833
Pre-Hispanic City of Teotihuacan,-98.84167,19.69167
Historic Centre of Oaxaca and Archaeological Site of Monte Alb¨¢n,-96.725885,17.061579
Historic Centre of Puebla,-98.197769,19.045967
Historic Town of Guanajuato and Adjacent Mines,-101.25556,21.01694
Pre-Hispanic City of Chichen-Itza,-88.568654,20.682739
Whale Sanctuary of El Vizcaino,-114.22778,27.79222
"Archaeological Zone of Paquim¨¦, Casas Grandes",-107.948122,30.367128
Historic Centre of Morelia,-101.190376,19.700927
"El Tajin, Pre-Hispanic City",-97.377642,20.446095
Historic Centre of Zacatecas,-102.573531,22.775484
Earliest 16th-Century Monasteries on the Slopes of Popocatepetl,-98.89777778,18.93472222
Rock Paintings of the Sierra de San Francisco,-113.020427,27.626963
Pre-Hispanic Town of Uxmal,-89.77027778,20.36166667
Historic Monuments Zone of Quer¨¦taro,-100.392135,20.593292
"Hospicio Caba?as, Guadalajara",-103.337798,20.676888
Historic Monuments Zone of Tlacotalpan,-95.658676,18.613459
Historic Fortified Town of Campeche,-90.53722,19.84639
Archaeological Monuments Zone of Xochicalco,-99.29639,18.803972
"Ancient Maya City and Protected Tropical Forests of Calakmul, Campeche",-89.73728333,18.05302778
Franciscan Missions in the Sierra Gorda of Quer¨¦taro,-99.46411111,21.20438889
Luis Barrag¨¢n House and Studio,-99.19235334,19.41119788
Islands and Protected Areas of the Gulf of California,-112.54583,27.62667
Agave Landscape and Ancient Industrial Facilities of Tequila,-103.7786111,20.86305556
Central University City Campus of the <i>Universidad Nacional Aut¨®noma de M¨¦xico</i> (UNAM),-99.18805556,19.33222222
Protective town of San Miguel and the Sanctuary of Jes¨²s Nazareno de Atotonilco,-100.7463889,20.91444444
Monarch Butterfly Biosphere Reserve,-100.2416667,19.60638889
Camino Real de Tierra Adentro,-102.3791667,22.60805556
Prehistoric Caves of Yagul and Mitla in the Central Valley of Oaxaca,-96.42111111,16.95083333
El Pinacate and Gran Desierto de Altar Biosphere Reserve,-113.9166667,32.0
Aqueduct of Padre Tembleque Hydraulic System,-98.66256667,19.83527778
Archipi¨¦lago de Revillagigedo,-110.9752778,18.78805556
Tehuac¨¢n-Cuicatl¨¢n Valley: originary habitat of Mesoamerica,-97.18715278,17.98996111
Nan Madol: Ceremonial Centre of Eastern Micronesia,158.3308333,6.839722222
Orkhon Valley Cultural Landscape,102.678482,47.479214
Petroglyphic Complexes of the Mongolian Altai,88.39527778,49.33388889
Great Burkhan Khaldun Mountain and its surrounding sacred landscape,109.0093278,48.76197778
Deer Stone Monuments and Related Bronze Age Sites,101.2258333,47.74277778
Durmitor National Park,19.0166,43.133
Natural and Culturo-Historical Region of Kotor,18.7,42.48333
Medina of Fez,-4.97778,34.06111
Medina of Marrakesh,-7.98667,31.63139
Ksar of Ait-Ben-Haddou,-7.12889,31.04722
Medina of Essaouira (formerly Mogador),-9.770305556,31.51411111
Historic City of Meknes,-5.55833,33.88333
Archaeological Site of Volubilis,-5.55694,34.07389
Medina of T¨¦touan (formerly known as Titawin),-5.36667,35.57083
Portuguese City of Mazagan (El Jadida),-8.50194,33.25667
"Rabat, Modern Capital and Historic City: a Shared Heritage",-6.822777778,34.02416667
Island of Mozambique,40.73583,-15.03417
Pyu Ancient Cities,95.81861111,22.47
Bagan,94.88444444,21.14888889
Twyfelfontein or /Ui-//aes,14.37258333,-20.59558333
Namib Sand Sea,15.40777778,-24.88527778
Sagarmatha National Park,86.91306,27.96528
Kathmandu Valley,85.30858,27.70395
Chitwan National Park,84.33333,27.5
"Lumbini, the Birthplace of the Lord Buddha",83.27611,27.46889
Schokland and Surroundings,5.771666667,52.63861111
Dutch Water Defence Lines,4.791388889,52.555
Mill Network at Kinderdijk-Elshout,4.649444444,51.8825
"Historic Area of Willemstad, Inner City and Harbour, Cura?ao",-68.90222,12.10194
Ir.D.F. Woudagemaal (D.F. Wouda Steam Pumping Station),5.67889,52.84583
Droogmakerij de Beemster (Beemster Polder),4.911111111,52.54888889
Rietveld Schr?derhuis (Rietveld Schr?der House),5.147555556,52.08533333
Seventeenth-Century Canal Ring Area of Amsterdam inside the Singelgracht,4.887777778,52.365
Van Nellefabriek,4.4325,51.92444444
Eisinga Planetarium in Franeker,5.543752778,53.187375
Tongariro National Park,175.5622222,-39.29083333
Te Wahipounamu ¨C South West New Zealand,167.3196111,-45.03602778
New Zealand Sub-Antarctic Islands,166.1044444,-50.75
Ruins of Le¨®n Viejo,-86.616336,12.40047
Le¨®n Cathedral,-86.87805556,12.435
Air and T¨¦n¨¦r¨¦ Natural Reserves,9.0,18.0
Historic Centre of Agadez,7.991388889,16.97361111
Sukur Cultural Landscape,13.57194,10.74056
Osun-Osogbo Sacred Grove,4.55222,7.75556
R?ros Mining Town and the Circumference,11.38555556,62.57388889
Urnes Stave Church,7.322678289,61.29825949
Bryggen,5.32306,60.39722
Rock Art of Alta,23.18333,69.95
Vega?yan ¨C The Vega Archipelago,11.75,65.61667
West Norwegian Fjords ¨C Geirangerfjord and N?r?yfjord,7.16667,62.11667
Rjukan-Notodden Industrial Heritage Site,8.593611111,59.87861111
Bahla Fort,57.30111,22.96417
"Archaeological Sites of Bat, Al-Khutm and Al-Ayn",56.745,23.26986
Land of Frankincense,53.64759,18.25333
<i>Aflaj</i> Irrigation Systems of Oman,57.53605556,22.99888889
Ancient City of Qalhat,59.37811111,22.69522222
Archaeological Ruins at Moenjodaro,68.13888889,27.32916667
Taxila,72.8875,33.77916667
Buddhist Ruins of Takht-i-Bahi and Neighbouring City Remains at Sahr-i-Bahlol,71.94583333,34.32083333
"Historical Monuments at Makli, Thatta",67.9,24.76666667
Fort and Shalamar Gardens in Lahore,74.30972222,31.59027778
Rohtas Fort,73.58888889,32.9625
Rock Islands Southern Lagoon,134.3525,7.246925
Fortifications on the Caribbean Side of Panama: Portobelo-San Lorenzo,-79.65583333,9.553888889
Darien National Park,-77.54722222,7.736111111
Archaeological Site of Panam¨¢ Viejo and Historic District of Panam¨¢,-79.54055556,8.951111111
Coiba National Park and its Special Zone of Marine Protection,-81.766,7.433
Kuk Early Agricultural Site,144.3317222,-5.783711111
Jesuit Missions of La Sant¨ªsima Trinidad de Paran¨¢ and Jes¨²s de Tavarangue,-55.702672,-27.131613
City of Cuzco,-71.980004,-13.517276
Historic Sanctuary of Machu Picchu,-72.533443,-13.184934
Chavin (Archaeological Site),-77.1784535,-9.592772544
Huascar¨¢n National Park,-77.4,-9.33333
Chan Chan Archaeological Zone,-79.074737,-8.107836
Man¨² National Park,-71.75,-12.25
Historic Centre of Lima,-77.0304,-12.046542
R¨ªo Abiseo National Park,-77.25,-7.75
Lines and Geoglyphs of Nasca and Palpa,-75.14861,-14.72583
Historical Centre of the City of Arequipa,-71.536777,-16.398353
Sacred City of Caral-Supe,-77.52138889,-10.89166667
Chankillo Archaeoastronomical Complex,-78.23591667,-9.556861111
Historic City of Vigan,120.3875,17.575
Puerto-Princesa Subterranean River National Park,118.9166667,10.16666667
Tubbataha Reefs Natural Park,119.8675,8.953333333
Baroque Churches of the Philippines,120.97,14.59
Rice Terraces of the Philippine Cordilleras,121.13667,16.93389
Mount Hamiguitan Range Wildlife Sanctuary,126.1734306,6.717169444
Historic Centre of Krak¨®w,19.93722222,50.06138889
Historic Centre of Warsaw,21.013,52.25
Auschwitz Birkenau <br /><small>German Nazi Concentration and Extermination Camp (1940-1945)</small>,19.175,50.03888889
Wieliczka and Bochnia Royal Salt Mines,20.06388889,49.97916667
Old City of Zamo??,23.25277778,50.71694444
Medieval Town of Toru¨½,18.60416667,53.01055556
Castle of the Teutonic Order in Malbork,19.02972222,54.041
Kalwaria Zebrzydowska: the Mannerist Architectural and Park Landscape Complex and Pilgrimage Park,19.676361,49.86668
Wooden Churches of Southern Ma?opolska,21.23333333,49.75
Churches of Peace in Jawor and ?widnica,16.19594444,51.05427778
Centennial Hall in Wroc?aw,17.07701389,51.10694722
Tarnowskie G¨®ry Lead-Silver-Zinc Mine and its Underground Water Management System,18.85122778,50.44269722
Krzemionki Prehistoric Striped Flint Mining Region,21.50230556,50.96797222
Central Zone of the Town of Angra do Heroismo in the Azores,-27.22,38.655
Monastery of the Hieronymites and Tower of Bel¨¦m in Lisbon,-9.21583,38.69194
Monastery of Batalha,-8.82694,39.65778
Convent of Christ in Tomar,-8.4175,39.60472
Historic Centre of ?vora,-7.90778,38.57306
Monastery of Alcoba?a,-8.97667,39.55
Cultural Landscape of Sintra,-9.41667,38.78333
"Historic Centre of Oporto, Luiz I Bridge and Monastery of Serra do Pilar",-8.616666667,41.14166667
Laurisilva of Madeira,-17.0,32.76666667
Historic Centre of Guimar?es and Couros Zone,-8.292777778,41.443
Alto Douro Wine Region,-7.798888889,41.10166667
Landscape of the Pico Island Vineyard Culture,-28.54116667,38.51344444
Garrison Border Town of Elvas and its Fortifications,-7.163322222,38.88061944
University of Coimbra ¨C Alta and Sofia,-8.425775,40.20781111
"Royal Building of <i>Mafra</i> ¨C Palace, Basilica, Convent, <i>Cerco</i> Garden and Hunting Park (<i>Tapada</i>)",-9.325527778,38.93716667
Sanctuary of Bom Jesus do Monte in Braga,-8.377027778,41.55494444
Al Zubarah Archaeological Site,51.02972222,25.97805556
Seokguram Grotto and Bulguksa Temple,129.349029,35.791498
"Haeinsa Temple Janggyeong Panjeon, the Depositories for the <I>Tripitaka Koreana</I> Woodblocks",128.098711,35.801672
Jongmyo Shrine,126.9936111,37.57472222
Changdeokgung Palace Complex,126.9911111,37.57888889
Hwaseong Fortress,127.00833,37.27222
Gyeongju Historic Areas,129.22667,35.78889
"Gochang, Hwasun and Ganghwa Dolmen Sites",126.92917,34.96667
Jeju Volcanic Island and Lava Tubes,126.7202778,33.46888889
Royal Tombs of the Joseon Dynasty,128.4527778,37.19722222
Historic Villages of Korea: Hahoe and Yangdong,128.5166667,36.53916667
Namhansanseong,127.1811111,37.47888889
Baekje Historic Areas,127.1272222,36.46194444
"Seowon, Korean Neo-Confucian Academies",128.8434278,36.72729722
"Sansa, Buddhist Mountain Monasteries in Korea",127.8333333,36.54194444
"Getbol, Korean Tidal Flats",126.1044444,34.82882222
Gaya Tumuli,128.873725,35.23726389
Danube Delta,29.5,45.08333
Villages with Fortified Churches in Transylvania,24.77305556,46.13583333
Monastery of Horezu,24.00722222,45.16972222
Churches of Moldavia,25.71277778,47.77833333
Historic Centre of Sighi?oara,24.79222222,46.21777778
Wooden Churches of Maramure?,24.05583333,47.82083333
Dacian Fortresses of the Orastie Mountains,23.31194444,45.62305556
Br?ncu?i Monumental Ensemble of T?rgu Jiu,23.27877778,45.03827778
Ro?ia Montan? Mining Landscape,23.13055556,46.30611111
Frontiers of the Roman Empire ¨C Dacia,23.15941111,47.18078889
Historic Centre of Saint Petersburg and Related Groups of Monuments,30.31833,59.95
Kizhi Pogost,35.22436111,62.06758333
"Kremlin and Red Square, Moscow",37.62041667,55.75402778
Historic Monuments of Novgorod and Surroundings,31.28333,58.53333
Cultural and Historic Ensemble of the Solovetsky Islands,35.66666667,65.08333333
White Monuments of Vladimir and Suzdal,40.41666667,56.15
"Church of the Ascension, Kolomenskoye",37.67389,55.65556
Architectural Ensemble of the Trinity Sergius Lavra in Sergiev Posad,38.1312,56.31035
Virgin Komi Forests,58.9525,63.62583333
Lake Baikal,107.6625,53.17361111
Volcanoes of Kamchatka,158.5,56.33333333
Central Sikhote-Alin,136.6611111,46.68333333
Golden Mountains of Altai,86.0,50.46666667
Western Caucasus,40.0,44.0
Historic and Architectural Complex of the Kazan Kremlin,49.10646024,55.79945266
Bolgar Historical and Archaeological Complex,49.05638889,54.97888889
Ensemble of the Ferapontov Monastery,38.56666667,59.95
Natural System of Wrangel Island Reserve,-179.7152778,71.18888889
"Citadel, Ancient City and Fortress Buildings of Derbent",48.28277778,42.05583333
Ensemble of the Novodevichy Convent,37.55508333,55.72611111
Historical Centre of the City of Yaroslavl,39.87611,57.65278
Putorana Plateau,94.15805556,69.04694444
Lena Pillars Nature Park,127.0,60.66666667
Churches of the Pskov School of Architecture,28.32855556,57.80719444
Assumption Cathedral and Monastery of the town-island of Sviyazhsk,48.65277778,55.77027778
Petroglyphs of Lake Onega and the White Sea,36.01263889,61.7299
Astronomical Observatories of Kazan Federal University,49.11909722,55.79090833
Cultural Landscape of Kenozero Lake,38.17261111,61.928
"Memorial sites of the Genocide: Nyamata, Murambi, Gisozi and Bisesero",29.56772222,-2.455527778
Nyungwe National Park,29.24733333,-2.5553
Brimstone Hill Fortress National Park,-62.83722,17.34694
Pitons Management Area,-61.07036111,13.80708333
San Marino Historic Centre and Mount Titano,12.45194444,43.93277778
Hegra Archaeological Site (al-Hijr / Mad¨¡ ? in ?¨¡li?),37.955,26.78361111
At-Turaif District in ad-Dir'iyah,46.57246667,24.73413333
"Historic Jeddah, the Gate to Makkah",39.1875,21.48388889
Rock Art in the Hail Region of Saudi Arabia,40.91305556,28.01055556
"Al-Ahsa Oasis, an Evolving Cultural Landscape",49.63056944,25.40216667
?im¨¡ Cultural Area,44.54533611,18.31671111
¡®Uruq Bani Ma¡¯arid,45.59833333,19.36388889
The Cultural Landscape of Al-Faw Archaeological Area,45.16338889,19.76491667
Djoudj National Bird Sanctuary,-16.237906,16.414602
Island of Gor¨¦e,-17.40083,14.66722
Niokolo-Koba National Park,-12.899781,12.841271
Island of Saint-Louis,-16.50444,16.02778
Saloum Delta,-16.49861111,13.83527778
"Bassari Country: Bassari, Fula and Bedik Cultural Landscapes",-12.84583333,12.59333333
Stari Ras and Sopo?ani,20.42278,43.11889
Studenica Monastery,20.53166667,43.48652778
Medieval Monuments in Kosovo,20.26555556,42.66111111
"Gamzigrad-Romuliana, Palace of Galerius",22.18611111,43.89930556
Aldabra Atoll,46.41666667,-9.416666667
Vall¨¦e de Mai Nature Reserve,55.7375,-4.32917
Singapore Botanic Gardens,103.8161111,1.315277778
Historic Town of Bansk¨¢ ?tiavnica and the Technical Monuments in its Vicinity,18.9,48.46111
"Levo?a, Spi?sk? Hrad and the Associated Cultural Monuments",20.7675,48.99944444
Vlkol¨ªnec,19.27833333,49.03916667
Bardejov Town Conservation Reserve,21.27555556,49.29277778
Wooden Churches of the Slovak part of the Carpathian Mountain Area,19.55833333,49.33611111
?kocjan Caves,14.0,45.66667
The works of Jo?e Ple?nik in Ljubljana ¨C Human Centred Urban Design,14.50222222,46.04333333
East Rennell,160.33333,-11.68333
iSimangaliso Wetland Park,32.55,-27.83889
Fossil Hominid Sites of South Africa,29.17694,-24.15861
Robben Island,18.36666667,-33.8
Cape Floral Region Protected Areas,18.475,-34.36111111
Mapungubwe Cultural Landscape,29.23889,-22.1925
Vredefort Dome,27.26,-26.86
Richtersveld Cultural and Botanical Landscape,17.20388889,-28.6
?Khomani Cultural Landscape,20.37458333,-25.68761111
Barberton Makhonjwa Mountains,31.01388889,-25.97388889
"Human Rights, Liberation and Reconciliation: Nelson Mandela Legacy Sites",28.21179167,-25.74069167
The Emergence of Modern Human Behaviour: The Pleistocene Occupation Sites of South Africa,18.4525,-32.38638889
Cave of Altamira and Paleolithic Cave Art of Northern Spain,-4.116166667,43.38252778
Old Town of Segovia and its Aqueduct,-4.11675,40.94847222
Monuments of Oviedo and the Kingdom of the Asturias,-5.84303,43.36262
Historic Centre of Cordoba,-4.779722222,37.87919444
"Alhambra, Generalife and Albayz¨ªn, Granada",-3.589916667,37.17677778
Burgos Cathedral,-3.704011111,42.34073333
"Monastery and Site of the Escurial, Madrid",-4.14775,40.58911111
Works of Antoni Gaud¨ª,2.152972,41.41338
Santiago de Compostela (Old Town),-8.54468,42.88076
Old Town of ?vila with its Extra-Muros Churches,-4.70012,40.65645
Mudejar Architecture of Aragon,-1.10722,40.34389
Historic City of Toledo,-4.024444444,39.85694444
Garajonay National Park,-17.23722222,28.12625
Old City of Salamanca,-5.6645,40.96525
"Cathedral, Alc¨¢zar and Archivo de Indias in Seville",-5.99155,37.38384
Old Town of C¨¢ceres,-6.37,39.47444
"Ibiza, Biodiversity and Culture",1.435194444,38.91113889
Poblet Monastery,1.0825,41.38083
Renaissance Monumental Ensembles of ?beda and Baeza,-3.37122,38.01131
Archaeological Ensemble of M¨¦rida,-6.33778,38.91611
Royal Monastery of Santa Mar¨ªa de Guadalupe,-5.3275,39.45285
Routes of Santiago de Compostela: <i>Camino Franc¨¦s</i> and Routes of Northern Spain,-6.414722222,43.335
Do?ana National Park,-6.358861,36.9477
Historic Walled Town of Cuenca,-2.13174,40.07662
La Lonja de la Seda de Valencia,-0.378444444,39.47441667
Las M¨¦dulas,-6.77075,42.46939
"Palau de la M¨²sica Catalana and Hospital de Sant Pau, Barcelona",2.175,41.38778
San Mill¨¢n Yuso and Suso Monasteries,-2.86496,42.32586
Rock Art of the Mediterranean Basin on the Iberian Peninsula,-1.03331,39.78995
Archaeological Ensemble of Tarraco,1.259305556,41.11472222
University and Historic Precinct of Alcal¨¢ de Henares,-3.368055556,40.48138889
San Crist¨®bal de La Laguna,-16.31177778,28.47788889
Palmeral of Elche,-0.716666667,38.26666667
Roman Walls of Lugo,-7.553069941,43.01064079
Catalan Romanesque Churches of the Vall de Bo¨ª,0.803611111,42.50472222
Archaeological Site of Atapuerca,-3.515277778,42.34972222
Aranjuez Cultural Landscape,-3.60934,40.03645
Vizcaya Bridge,-3.016833333,43.323175
Teide National Park,-16.64361111,28.27138889
Tower of Hercules,-8.406388889,43.38583333
Cultural Landscape of the Serra de Tramuntana,2.694722222,39.73083333
Antequera Dolmens Site,-4.544444444,37.025
Talayotic Menorca,3.908888889,39.9975
Caliphate City of Medina Azahara,-4.867694444,37.88588889
Risco Caido and the Sacred Mountains of Gran Canaria Cultural Landscape,-15.66119444,28.04438889
"Paseo del Prado and Buen Retiro, a landscape of Arts and Sciences",-3.687055556,40.41533333
Sacred City of Anuradhapura,80.38333333,8.333333333
Ancient City of Polonnaruwa,81.00055556,7.915833333
Ancient City of Sigiriya,80.75,7.95
Sinharaja Forest Reserve,80.5,6.416666667
Sacred City of Kandy,80.64027778,7.293611111
Old Town of Galle and its Fortifications,80.216346,6.028051
Rangiri Dambulla Cave Temple,80.64916667,7.856666667
Central Highlands of Sri Lanka,80.8021,7.45245
"Birthplace of Jesus: Church of the Nativity and the Pilgrimage Route, Bethlehem",35.2075,31.70435278
"Palestine: Land of Olives and Vines ¨C Cultural Landscape of Southern Jerusalem, Battir",35.15888889,31.71638889
Hebron/Al-Khalil Old Town,35.10833333,31.52444444
Ancient Jericho/Tell es-Sultan,35.44405556,31.87130556
Saint Hilarion Monastery/ Tell Umm Amer,34.36636111,31.44730556
Sanganeb Marine National Park and Dungonab Bay ¨C Mukkawar Island Marine National Park,37.44305556,19.73611111
Gebel Barkal and the Sites of the Napatan Region,31.82802778,18.537
Archaeological Sites of the Island of Meroe,33.71666667,16.93333333
Historic Inner City of Paramaribo,-55.15,5.82611
Central Suriname Nature Reserve,-56.5,4.0
Jodensavanne Archaeological Site: Jodensavanne Settlement and Cassipora Creek Cemetery,-54.98266667,5.431111111
Birka and Hovg?rden,17.54264,59.33514
Engelsberg Ironworks,16.01,59.97
Rock Carvings in Tanum,11.34111,58.70111
Skogskyrkog?rden,18.09944,59.27556
Royal Domain of Drottningholm,17.88333,59.32306
Hanseatic Town of Visby,18.29583,57.64167
"Church Town of Gammelstad, Lule?",22.02861,65.64611
Laponian Area,17.58333,67.33333
Naval Port of Karlskrona,15.58333,56.16667
Agricultural Landscape of Southern ?land,16.48333,56.325
Mining Area of the Great Copper Mountain in Falun,15.63083,60.60472
"Grimeton Radio Station, Varberg",12.38333333,57.1
Decorated Farmhouses of H?lsingland,16.19583333,61.70722222
Old City of Berne,7.45028,46.94806
Abbey of St Gall,9.37778,47.42333
Benedictine Convent of St John at M¨¹stair,10.44765,46.62945
"Three Castles, Defensive Wall and Ramparts of the Market-Town of Bellinzona",9.02242,46.19314
Swiss Alps Jungfrau-Aletsch,8.033333333,46.5
Swiss Tectonic Arena Sardona,9.25,46.91666667
"Lavaux, Vineyard Terraces",6.746111111,46.49194444
"La Chaux-de-Fonds / Le Locle, Watchmaking Town Planning",6.832777778,47.10388889
Ancient City of Damascus,36.30972222,33.51083333
Ancient City of Aleppo,37.16277778,36.19916667
Ancient City of Bosra,36.48416667,32.51916667
Site of Palmyra,38.26666667,34.55416667
Crac des Chevaliers and Qal¡¯at Salah El-Din,36.29444444,34.75666667
Ancient Villages of Northern Syria,36.84416667,36.33416667
Proto-urban Site of Sarazm,67.45872222,39.50788889
Tajik National Park (Mountains of the Pamirs),72.30527778,38.765
Tugay forests of the Tigrovaya Balka Nature Reserve,68.34138889,37.20472222
Historic Town of Sukhothai and Associated Historic Towns,99.78972,17.00722
Ban Chiang Archaeological Site,103.237589,17.407772
Historic City of Ayutthaya,100.56056,14.34778
Dong Phayayen-Khao Yai Forest Complex,102.05,14.33
Thungyai-Huai Kha Khaeng Wildlife Sanctuaries,98.91667,15.33333
Kaeng Krachan Forest Complex,99.40016667,12.86566667
"Phu Phrabat, a testimony to the S¨©ma stone tradition of the Dvaravati period",102.3562667,17.73105833
The Ancient Town of Si Thep and its Associated Dvaravati Monuments,101.1511139,15.46581667
Ichkeul National Park,9.67472,37.16361
Medina of Tunis,10.16667,36.81667
Archaeological Site of Carthage,10.32333,36.85278
Amphitheatre of El Jem,10.70694,35.29639
Punic Town of Kerkuane and its Necropolis,11.09917,36.94639
Medina of Sousse,10.63861,35.82778
Kairouan,10.10389,35.68167
Dougga / Thugga,9.22028,36.42361
Djerba: Testimony to a settlement pattern in an island territory,11.00395833,33.79241944
Historic Areas of Istanbul,28.97993,41.00847
G?reme National Park and the Rock Sites of Cappadocia,34.85,38.66667
Great Mosque and Hospital of Divri?i,38.121826,39.371271
Hattusha: the Hittite Capital,34.62056,40.01389
Nemrut Da?,38.76369,38.03661
Xanthos-Letoon,29.32028,36.335
Hierapolis-Pamukkale,29.12333,37.92389
City of Safranbolu,32.68972,41.26
Archaeological Site of Troy,26.239,39.95644
Ephesus,27.35944444,37.92916667
Selimiye Mosque and its Social Complex,26.55944444,41.67777778
Neolithic Site of ?atalh?y¨¹k,32.82805556,37.66666667
Bursa and Cumal?k?z?k: the Birth of the Ottoman Empire,29.06233611,40.18473056
Pergamon and its Multi-Layered Cultural Landscape,27.18,39.12583333
Diyarbak?r Fortress and Hevsel Gardens Cultural Landscape,40.23930833,37.9031
Archaeological Site of Ani,43.56666667,40.5
Aphrodisias,28.72361111,37.70833333
G?bekli Tepe,38.92236389,37.22324194
Arslantepe Mound,38.36109167,38.3822
Gordion,31.98611111,39.64333333
Wooden Hypostyle Mosques of Medieval Anatolia,30.529575,38.75503611
State Historical and Cultural Park ¡°Ancient Merv¡±,62.1775,37.70083
Kunya-Urgench,59.08494,42.18318
Parthian Fortresses of Nisa,58.19861111,37.99972222
Bwindi Impenetrable National Park,29.66138889,-1.080555556
Rwenzori Mountains National Park,29.92416667,0.223611111
Tombs of Buganda Kings at Kasubi,32.55138889,0.348611111
"Kyiv: Saint-Sophia Cathedral and Related Monastic Buildings, Kyiv-Pechersk Lavra",30.51686,50.45258
L'viv ¨C the Ensemble of the Historic Centre,24.03198,49.84163
Residence of Bukovinian and Dalmatian Metropolitans,25.92472222,48.29666667
Ancient City of Tauric Chersonese and its Chora,33.49138889,44.61083333
The Historic Centre of Odesa,30.74161389,46.48645
"Cultural Sites of Al Ain (Hafit, Hili, Bidaa Bint Saud and Oases Areas)",55.80638889,24.06777778
Giant's Causeway and Causeway Coast,-6.511666667,55.24083333
Durham Castle and Cathedral,-1.576111111,54.77472222
Ironbridge Gorge,-2.472777778,52.62638889
Studley Royal Park including the Ruins of Fountains Abbey,-1.573055556,54.11611111
"Stonehenge, Avebury and Associated Sites",-1.825277778,51.17888889
Castles and Town Walls of King Edward in Gwynedd,-4.276944444,53.13972222
St Kilda,-8.576666667,57.81722222
The English Lake District,-3.082416667,54.47661111
Blenheim Palace,-1.361388889,51.84194444
Palace of Westminster and Westminster Abbey including Saint Margaret¡¯s Church,-0.127,51.499
City of Bath,-2.359055556,51.38130556
New Lanark,-3.783055556,55.66333333
Henderson Island,-128.3333333,-24.36666667
Tower of London,-0.076111111,51.50805556
"Canterbury Cathedral, St Augustine's Abbey, and St Martin's Church",1.083333333,51.28
Heart of Neolithic Orkney,-3.188666667,58.99605556
Old and New Towns of Edinburgh,-3.216666667,55.95
Gough and Inaccessible Islands,-9.928611111,-40.32472222
Maritime Greenwich,-0.003777778,51.48116667
"Historic Town of St George and Related Fortifications, Bermuda",-64.67777778,32.37944444
Blaenavon Industrial Landscape,-3.088055556,51.77638889
Saltaire,-1.788333333,53.83916667
Dorset and East Devon Coast,-2.989888889,50.70555556
Derwent Valley Mills,-1.488055556,53.02888889
"Royal Botanic Gardens, Kew",-0.294027778,51.48194444
Cornwall and West Devon Mining Landscape,-5.383611111,50.13611111
Pontcysyllte Aqueduct and Canal,-3.087777778,52.97027778
The Forth Bridge,-3.388888889,56.00111111
Gorham's Cave Complex,-5.342061111,36.12266944
Jodrell Bank Observatory,-2.303861111,53.23391667
The Slate Landscape of Northwest Wales,-4.115,53.12083333
The Flow Country,-4.046111111,58.39916667
Ngorongoro Conservation Area,35.54083,-3.18722
Ruins of Kilwa Kisiwani and Ruins of Songo Mnara,39.52278,-8.95778
Serengeti National Park,34.56667,-2.33333
Stone Town of Zanzibar,39.18917,-6.16306
Selous Game Reserve,37.4,-9.0
Kilimanjaro National Park,37.36667,-3.06667
Kondoa Rock-Art Sites,35.83388889,-4.724444444
Mesa Verde National Park,-108.4855556,37.26166667
Yellowstone National Park,-110.82778,44.46056
Grand Canyon National Park,-112.0905556,36.10083333
Everglades National Park,-80.99638889,25.55444444
Independence Hall,-75.15,39.94861111
Redwood National and State Parks,-123.9980556,41.37388889
Mammoth Cave National Park,-86.10305556,37.18722222
Olympic National Park,-123.4488889,47.74833333
Cahokia Mounds State Historic Site,-90.06138889,38.65861111
Great Smoky Mountains National Park,-83.43555556,35.59305556
La Fortaleza and San Juan National Historic Site in Puerto Rico,-66.125,18.46666667
Statue of Liberty,-74.04472222,40.68944444
Yosemite National Park,-119.5966667,37.74611111
Chaco Culture,-107.9708333,36.06377778
Hawaii Volcanoes National Park,-155.1236111,19.40083333
Monticello and the University of Virginia in Charlottesville,-78.50388889,38.03277778
Taos Pueblo,-105.546,36.438
Carlsbad Caverns National Park,-104.3833333,32.16666667
Papah¨¡naumoku¨¡kea,-170.14582,25.34907
Monumental Earthworks of Poverty Point,-91.40638889,32.63694444
San Antonio Missions,-98.46,29.32805556
The 20th-Century Architecture of Frank Lloyd Wright,-79.46647556,39.90557083
Hopewell Ceremonial Earthworks,-82.44606111,40.05365833
Historic Quarter of the City of Colonia del Sacramento,-57.849898,-34.47119
Fray Bentos Industrial Landscape,-58.33166667,-33.11777778
The work of engineer Eladio Dieste: Church of Atl¨¢ntida,-55.76640833,-34.74391944
Itchan Kala,60.360253,41.378088
Historic Centre of Bukhara,64.42861,39.77472
Samarkand ¨C Crossroad of Cultures,67.0,39.66861
Historic Centre of Shakhrisyabz,66.83333,39.05
Chief Roi Mata¡¯s Domain,168.1777194,-17.62806944
Coro and its Port,-69.679228,11.409794
Canaima National Park,-62.037883,5.337994
Ciudad Universitaria de Caracas,-66.89068,10.49073
Ha Long Bay - Cat Ba Archipelago,107.1611111,20.83277778
Complex of Hu¨¦ Monuments,107.57778,16.46944
Hoi An Ancient Town,108.3333333,15.88333333
My Son Sanctuary,108.109169,15.773843
Phong Nha-Ke Bang National Park,106.15125,17.53722222
Central Sector of the Imperial Citadel of Thang Long - Hanoi,105.838623,21.03752
Citadel of the Ho Dynasty,105.6047222,20.07805556
Trang An Landscape Complex,105.8963889,20.25666667
Old Walled City of Shibam,48.62667,15.92694
Old City of Sana'a,44.20805556,15.35555556
Historic Town of Zabid,43.31552778,14.19533333
Socotra Archipelago,53.83333333,12.5
"Landmarks of the Ancient Kingdom of Saba, Marib",45.33522778,15.42687778
"Mana Pools National Park, Sapi and Chewore Safari Areas",29.40805556,-15.81944444
Matobo Hills,28.5,-20.5
Great Zimbabwe National Monument,30.93333333,-20.28333333
Khami Ruins National Monument,28.37666667,-20.15833333
Ancient and Primeval Beech Forests of the Carpathians and Other Regions of Europe,22.18333333,48.9
Natural and Cultural Heritage of the Ohrid region,20.70416667,40.99183333
"The Architectural Work of Le Corbusier, an Outstanding Contribution to the Modern Movement",6.829336111,46.46841389
"Qhapaq ?an, Andean Road System",-69.59166667,-18.25
"Jesuit Missions of the Guaranis: San Ignacio Mini, Santa Ana, Nuestra Se?ora de Loreto and Santa Maria Mayor (Argentina), Ruins of Sao Miguel das Missoes (Brazil)",-54.26583333,-28.54333333
The Great Spa Towns of Europe,5.866944444,50.49222222
Prehistoric Pile Dwellings around the Alps,8.2075,47.27833333
Frontiers of the Roman Empire ¨C The Danube Limes (Western Segment),16.86138889,48.11519444
Fert? / Neusiedlersee Cultural Landscape,16.72272222,47.71927778
Hyrcanian Forests,55.72427778,37.42147222
Struve Geodetic Arc,26.33777778,59.05777778
Bia?owie?a Forest,23.98111111,52.7275
Belfries of Belgium and France,3.23139,50.17444
Colonies of Benevolence,6.391588889,53.04222222
W-Arly-Pendjari Complex,2.487777778,11.88416667
"Koutammakou, the Land of the Batammariba",1.100222222,10.14808333
Ste?ci Medieval Tombstone Graveyards,17.92405278,43.09221389
Sangha Trinational,16.55416667,2.609444444
Kluane / Wrangell-St. Elias / Glacier Bay / Tatshenshini-Alsek,-140.9919722,61.19758333
Waterton Glacier International Peace Park,-113.9041667,48.99605556
Silk Roads: the Routes Network of Chang'an-Tianshan Corridor,108.8572222,34.30444444
Talamanca Range-La Amistad Reserves / La Amistad National Park,-82.93880556,9.407083333
Mount Nimba Strict Nature Reserve,-8.39097,7.60318
Venetian Works of Defence between the 16th and 17th Centuries: <em>Stato da Terra</em> ¨C Western <em>Stato da Mar</em>,9.663611111,45.70333333
Erzgebirge/Kru?noho?¨ª Mining Region,12.83734444,50.40652778
Wadden Sea,8.556111111,53.52861111
Moravian Church Settlements,9.481388889,55.35555556
High Coast / Kvarken Archipelago,21.3,63.3
Pyr¨¦n¨¦es - Mont Perdu,-0.0005,42.68542
Stone Circles of Senegambia,-15.5225,13.69111111
Frontiers of the Roman Empire ¨C The Lower German Limes,4.433,52.18033333
Muskauer Park / Park Mu?akowski,14.729389,51.547653
Frontiers of the Roman Empire,-2.601,54.99261111
"Historic Centre of Rome, the Properties of the Holy See in that City Enjoying Extraterritorial Rights and San Paolo Fuori le Mura",12.49230556,41.89022222
Caves of Aggtelek Karst and Slovak Karst,20.48687,48.47573
Monte San Giorgio,8.913888889,45.88888889
Rhaetian Railway in the Albula / Bernina Landscapes,9.846388889,46.49833333
Western Tien-Shan,68.67888889,43.71833333
Cold Winter Deserts of Turan,79.03416667,44.02583333
Maloti-Drakensberg Park,29.12305556,-29.76527778
Curonian Spit,20.96239,55.27458
Uvs Nuur Basin,92.71972222,50.275
Landscapes of Dauria,115.4254444,49.93022222
Wooden <em>Tserkvas</em> of the Carpathian Region in Poland and Ukraine,21.03222222,49.53388889
Prehistoric Rock Art Sites in the C?a Valley and Siega Verde,-6.661111111,40.6975
Heritage of Mercury. Almad¨¦n and Idrija,-4.838888889,38.77527778
Silk Roads: Zarafshan-Karakum Corridor,69.68555833,39.44148889
Mosi-oa-Tunya / Victoria Falls,25.85539,-17.92453
